NORAD_CAT_ID,OBJECT_NAME,OBJECT_TYPE,EPOCH,MEAN_MOTION,ECCENTRICITY,INCLINATION,RA_OF_ASC_NODE,ARG_OF_PERICENTER,MEAN_ANOMALY,BSTAR,MEAN_MOTION_DOT,MEAN_MOTION_DDOT,TLE_LINE0,TLE_LINE1,TLE_LINE2,SEMIMAJOR_AXIS,PERIOD,APOGEE,PERIGEE,DECAYED
54056.0,STARLINK-5226,PAYLOAD,2023-08-23 02:00:25,15.08816308,0.0001576,53.2163,197.3826,105.854,254.2626,0.00032641,4.907e-05,0.0,0 STARLINK-5226,1 54056U 22136F   23235.08363387  .00004907  00000-0  32641-3 0  9996,2 54056  53.2163 197.3826 0001576 105.8540 254.2626 15.08816308 46984,6917.953,95.439,540.908,538.728,0.0
54056.0,STARLINK-5226,PAYLOAD,2023-08-23 06:46:35,15.08838754,0.0001438,53.2166,196.4901,93.438,266.6776,0.00011153,1.487e-05,0.0,0 STARLINK-5226,1 54056U 22136F   23235.28234974  .00001487  00000-0  11153-3 0  9992,2 54056  53.2166 196.4901 0001438  93.4380 266.6776 15.08838754 47019,6917.884,95.438,540.744,538.754,0.0
54056.0,STARLINK-5226,PAYLOAD,2023-08-24 06:37:22,15.08838538,0.0001552,53.2169,192.0295,77.6645,282.4521,3.9549e-05,3.41e-06,0.0,0 STARLINK-5226,1 54056U 22136F   23236.27595420  .00000341  00000-0  39549-4 0  9996,2 54056  53.2169 192.0295 0001552  77.6645 282.4521 15.08838538 46681,6917.885,95.438,540.824,538.676,0.0
54056.0,STARLINK-5226,PAYLOAD,2023-08-25 06:28:08,15.08847361,0.0001622,53.2178,187.5672,85.4912,274.6265,8.8242e-05,1.117e-05,0.0,0 STARLINK-5226,1 54056U 22136F   23237.26954461  .00001117  00000-0  88242-4 0  9996,2 54056  53.2178 187.5672 0001622  85.4912 274.6265 15.08847361 47314,6917.858,95.437,540.845,538.601,0.0
54056.0,STARLINK-5226,PAYLOAD,2023-08-25 23:57:23,15.08838543,0.0001409,53.2171,184.2945,111.7607,248.3535,-1.4768e-05,-5.23e-06,0.0,0 STARLINK-5226,1 54056U 22136F   23237.99819156 -.00000523  00000-0 -14768-4 0  9991,2 54056  53.2171 184.2945 0001409 111.7607 248.3535 15.08838543 47423,6917.885,95.438,540.725,538.775,0.0
54056.0,STARLINK-5226,PAYLOAD,2023-08-26 06:18:56,15.08839395,0.0001374,53.2172,183.1063,104.79,255.3245,-1.0585e-05,-4.56e-06,0.0,0 STARLINK-5226,1 54056U 22136F   23238.26315127 -.00000456  00000-0 -10585-4 0  9999,2 54056  53.2172 183.1063 0001374 104.7900 255.3245 15.08839395 46984,6917.882,95.438,540.698,538.797,0.0
54056.0,STARLINK-5226,PAYLOAD,2023-08-27 01:23:33,15.08836551,0.0001379,53.217,179.5375,107.9446,252.1697,2.668e-05,1.37e-06,0.0,0 STARLINK-5226,1 54056U 22136F   23239.05803136  .00000137  00000-0  26680-4 0  9996,2 54056  53.2170 179.5375 0001379 107.9446 252.1697 15.08836551 47586,6917.891,95.438,540.71,538.802,0.0
54056.0,STARLINK-5226,PAYLOAD,2023-08-27 04:34:19,15.08847976,0.000137,53.2176,178.944,102.8839,257.2307,-5.4285e-05,-1.152e-05,0.0,0 STARLINK-5226,1 54056U 22136F   23239.19050822 -.00001152  00000-0 -54285-4 0  9999,2 54056  53.2176 178.9440 0001370 102.8839 257.2307 15.08847976 47609,6917.856,95.437,540.669,538.773,0.0
54056.0,STARLINK-5226,PAYLOAD,2023-08-27 20:28:11,15.08835811,0.0001356,53.2178,175.9744,99.8486,260.2659,-2.2618e-06,-3.24e-06,0.0,0 STARLINK-5226,1 54056U 22136F   23239.85291610 -.00000324  00000-0 -22618-5 0  9990,2 54056  53.2178 175.9744 0001356  99.8486 260.2659 15.08835811 47229,6917.893,95.438,540.696,538.82,0.0
54056.0,STARLINK-5226,PAYLOAD,2023-08-28 02:49:44,15.08842401,0.000121,53.2176,174.7867,90.6977,269.4154,7.3432e-07,-2.76e-06,0.0,0 STARLINK-5226,1 54056U 22136F   23240.11787285 -.00000276  00000-0  73432-6 0  9995,2 54056  53.2176 174.7867 0001210  90.6977 269.4154 15.08842401 47744,6917.873,95.437,540.575,538.901,0.0
54056.0,STARLINK-5226,PAYLOAD,2023-08-28 12:22:03,15.08839626,0.0001122,53.2165,172.999,85.822,274.29,3.4522e-05,2.62e-06,0.0,0 STARLINK-5226,1 54056U 22136F   23240.51531270  .00000262  00000-0  34522-4 0  9999,2 54056  53.2165 172.9990 0001122  85.8220 274.2900 15.08839626 47320,6917.882,95.438,540.523,538.97,0.0
54056.0,STARLINK-5226,PAYLOAD,2023-08-29 02:40:31,15.08835991,0.0001363,53.2164,170.3236,99.5767,260.5379,-1.6076e-05,-5.44e-06,0.0,0 STARLINK-5226,1 54056U 22136F   23241.11147931 -.00000544  00000-0 -16076-4 0  9992,2 54056  53.2164 170.3236 0001363  99.5767 260.5379 15.08835991 47890,6917.893,95.438,540.701,538.815,0.0
54056.0,STARLINK-5226,PAYLOAD,2023-08-29 12:12:50,15.08835204,0.0001454,53.2184,168.5405,91.5302,268.5857,2.623e-05,1.29e-06,0.0,0 STARLINK-5226,1 54056U 22136F   23241.50892081  .00000129  00000-0  26230-4 0  9998,2 54056  53.2184 168.5405 0001454  91.5302 268.5857 15.08835204 47477,6917.895,95.438,540.766,538.754,0.0
54056.0,STARLINK-5226,PAYLOAD,2023-08-30 04:06:42,15.08836371,0.0001333,53.2167,165.5659,87.2347,272.8797,6.8755e-06,-1.78e-06,0.0,0 STARLINK-5226,1 54056U 22136F   23242.17132361 -.00000178  00000-0  68755-5 0  9994,2 54056  53.2167 165.5659 0001333  87.2347 272.8797 15.08836371 48055,6917.891,95.438,540.679,538.834,0.0
54056.0,STARLINK-5226,PAYLOAD,2023-08-30 12:03:37,15.08841076,0.000139,53.2171,164.0787,85.7103,274.4047,9.2009e-06,-1.41e-06,0.0,0 STARLINK-5226,1 54056U 22136F   23242.50252084 -.00000141  00000-0  92009-5 0  9995,2 54056  53.2171 164.0787 0001390  85.7103 274.4047 15.08841076 47628,6917.877,95.437,540.704,538.781,0.0
54056.0,STARLINK-5226,PAYLOAD,2023-08-31 03:57:29,15.08812682,0.000163,53.2173,161.1047,88.2537,271.8642,0.00046059,7.044e-05,0.0,0 STARLINK-5226,1 54056U 22136F   23243.16492490  .00007044  00000-0  46059-3 0  9995,2 54056  53.2173 161.1047 0001630  88.2537 271.8642 15.08812682 48201,6917.964,95.439,540.957,538.701,0.0
54056.0,STARLINK-5226,PAYLOAD,2023-09-01 11:45:11,15.08841893,0.0001415,53.2166,155.1579,80.8287,279.2865,4.0309e-05,3.54e-06,0.0,0 STARLINK-5226,1 54056U 22136F   23244.48972130  .00000354  00000-0  40309-4 0  9995,2 54056  53.2166 155.1579 0001415  80.8287 279.2865 15.08841893 48404,6917.875,95.437,540.718,538.761,0.0
54056.0,STARLINK-5226,PAYLOAD,2023-09-02 00:28:16,15.08821921,2e-05,53.2144,152.7789,101.6805,258.421,0.00037441,5.673e-05,0.0,0 STARLINK-5226,1 54056U 22136F   23245.01964108  .00005673  00000-0  37441-3 0  9992,2 54056  53.2144 152.7789 0000200 101.6805 258.4210 15.08821921 48486,6917.936,95.439,539.939,539.662,0.0
54056.0,STARLINK-5226,PAYLOAD,2023-09-02 03:39:02,15.08846315,0.0001429,53.2148,152.1831,87.9786,272.137,5.809e-05,6.37e-06,0.0,0 STARLINK-5226,1 54056U 22136F   23245.15211603  .00000637  00000-0  58090-4 0  9991,2 54056  53.2148 152.1831 0001429  87.9786 272.1370 15.08846315 48507,6917.861,95.437,540.715,538.738,0.0
54056.0,STARLINK-5226,PAYLOAD,2023-09-03 00:19:03,15.08839374,0.0001318,53.2158,148.3158,96.5461,263.5681,1.2659e-05,-8.6e-07,0.0,0 STARLINK-5226,1 54056U 22136F   23246.01324041 -.00000086  00000-0  12659-4 0  9998,2 54056  53.2158 148.3158 0001318  96.5461 263.5681 15.08839374 48630,6917.882,95.438,540.659,538.836,0.0
54056.0,STARLINK-5226,PAYLOAD,2023-09-03 03:29:50,15.08840057,0.000133,53.216,147.7211,96.4928,263.6215,2.108e-05,4.8e-07,0.0,0 STARLINK-5226,1 54056U 22136F   23246.14572010  .00000048  00000-0  21080-4 0  9998,2 54056  53.2160 147.7211 0001330  96.4928 263.6215 15.08840057 48170,6917.88,95.438,540.665,538.825,0.0
54056.0,STARLINK-5226,PAYLOAD,2023-09-04 01:45:14,15.08857341,0.0001166,53.2165,143.5609,96.3742,263.7383,-0.000306,-5.157e-05,0.0,0 STARLINK-5226,1 54056U 22136F   23247.07308400 -.00005157  00000-0 -30600-3 0  9996,2 54056  53.2165 143.5609 0001166  96.3742 263.7383 15.08857341 48799,6917.827,95.436,540.499,538.886,0.0
54056.0,STARLINK-5226,PAYLOAD,2023-09-04 17:39:06,15.08848248,0.000126,53.2171,140.5871,94.9839,265.1297,-0.00016183,-2.863e-05,0.0,0 STARLINK-5226,1 54056U 22136F   23247.73548948 -.00002863  00000-0 -16183-3 0  9993,2 54056  53.2171 140.5871 0001260  94.9839 265.1297 15.08848248 48897,6917.855,95.437,540.592,538.849,0.0
54056.0,STARLINK-5226,PAYLOAD,2023-09-05 01:36:01,15.08857942,0.0001294,53.2174,139.1024,100.7887,259.325,-0.00018958,-3.305e-05,0.0,0 STARLINK-5226,1 54056U 22136F   23248.06668305 -.00003305  00000-0 -18958-3 0  9994,2 54056  53.2174 139.1024 0001294 100.7887 259.3250 15.08857942 48941,6917.826,95.436,540.586,538.795,0.0
54056.0,STARLINK-5226,PAYLOAD,2023-09-06 01:26:48,15.08840424,0.0001323,53.2173,134.6408,89.239,270.8754,0.00010688,1.414e-05,0.0,0 STARLINK-5226,1 54056U 22136F   23249.06028381  .00001414  00000-0  10688-3 0  9998,2 54056  53.2173 134.6408 0001323  89.2390 270.8754 15.08840424 49090,6917.879,95.438,540.659,538.829,0.0
54056.0,STARLINK-5226,PAYLOAD,2023-09-07 01:17:35,15.0884134,0.00013,53.2171,130.1796,86.771,273.3431,1.9129e-05,1.7e-07,0.0,0 STARLINK-5226,1 54056U 22136F   23250.05388614  .00000017  00000-0  19129-4 0  9995,2 54056  53.2171 130.1796 0001300  86.7710 273.3431 15.08841340 48763,6917.876,95.437,540.641,538.842,0.0
54056.0,STARLINK-5226,PAYLOAD,2023-09-08 01:08:20,15.08856349,0.00012,53.2169,125.7193,88.545,271.568,0.0001526,2.143e-05,0.0,0 STARLINK-5226,1 54056U 22136F   23251.04746449  .00002143  00000-0  15260-3 0  9992,2 54056  53.2169 125.7193 0001200  88.5450 271.5680 15.08856349 49392,6917.83,95.437,540.526,538.865,0.0
54056.0,STARLINK-5226,PAYLOAD,2023-09-08 21:48:22,15.08850539,0.0001233,53.2167,121.854,80.3681,279.7451,-4.4319e-05,-9.93e-06,0.0,0 STARLINK-5226,1 54056U 22136F   23251.90859779 -.00000993  00000-0 -44319-4 0  9999,2 54056  53.2167 121.8540 0001233  80.3681 279.7451 15.08850539 49048,6917.848,95.437,540.566,538.86,0.0
54056.0,STARLINK-5226,PAYLOAD,2023-09-09 00:59:08,15.08853246,0.0001209,53.2172,121.258,83.1969,276.9161,-1.8966e-05,-5.9e-06,0.0,0 STARLINK-5226,1 54056U 22136F   23252.04107429 -.00000590  00000-0 -18966-4 0  9995,2 54056  53.2172 121.2580 0001209  83.1969 276.9161 15.08853246 49545,6917.84,95.437,540.541,538.869,0.0
54056.0,STARLINK-5226,PAYLOAD,2023-09-09 08:56:04,15.08843102,0.0001157,53.2167,119.7728,75.1026,285.0094,-9.9207e-05,-1.866e-05,0.0,0 STARLINK-5226,1 54056U 22136F   23252.37227989 -.00001866  00000-0 -99207-4 0  9999,2 54056  53.2167 119.7728 0001157  75.1026 285.0094 15.08843102 49593,6917.871,95.437,540.536,538.936,0.0
